ONEWEB-0035             
1 45143U 20008N   26065.99356036 -.00000591  00000+0 -17307-2 0  9993
2 45143  87.8760  56.6284 0001943  88.8673 271.2677 13.10371677294556
ONEWEB-0036             
1 45144U 20008P   26065.99240230 -.00000651  00000+0 -19174-2 0  9993
2 45144  87.8776  56.5996 0001632  81.9427 278.1885 13.09814587294983
ONEWEB-0038             
1 45145U 20008Q   26066.16009876  .00000124  00000+0  31436-3 0  9992
2 45145  87.8867  41.3510 0002097 135.3761 224.7536 13.11414920296959
ONEWEB-0039             
1 45146U 20008R   26066.19526433  .00000593  00000+0  16631-2 0  9998
2 45146  87.8777  56.5720 0001294  85.4177 274.7099 13.10371998294802
ONEWEB-0040             
1 45147U 20008S   26065.95955971  .00000680  00000+0  19116-2 0  9993
2 45147  87.8766  56.6358 0001796  90.2736 269.8598 13.10373261294478
ONEWEB-0043             
1 45149U 20008U   26065.96121209  .00000697  00000+0  19612-2 0  9994
2 45149  87.8771  56.6184 0001256  80.7799 279.3471 13.10373264294791
ONEWEB-0044             
1 45150U 20008V   26065.98941286 -.00000482  00000+0 -14177-2 0  9998
2 45150  87.8774  56.6086 0001642  88.8937 271.2378 13.10370785295095
ONEWEB-0045             
1 45151U 20008W   26065.92598692  .00000406  00000+0  11087-2 0  9993
2 45151  87.8867  41.3845 0001725  85.0151 275.1174 13.11413984297002
ONEWEB-0047             
1 45152U 20008X   26065.98278217 -.00000205  00000+0 -62300-3 0  9992
2 45152  87.8765  56.6130 0001892  92.6348 267.4996 13.10372944294814
ONEWEB-0048             
1 45153U 20008Y   26065.97780058  .00000044  00000+0  88432-4 0  9997
2 45153  87.8763  56.6412 0001865  89.1691 270.9650 13.10368641294420
ONEWEB-0049             
1 45154U 20008Z   26066.05733794 -.00000195  00000+0 -59413-3 0  9998
2 45154  87.8760  56.6131 0001797  72.0338 288.0985 13.10368152294652
ONEWEB-0051             
1 45155U 20008AA  26066.00059089  .00000442  00000+0  12123-2 0  9991
2 45155  87.8862  41.3828 0001814  84.6884 275.4451 13.11415089297693
ONEWEB-0052             
1 45156U 20008AB  26065.98087626 -.00000127  00000+0 -40416-3 0  9995
2 45156  87.8769  56.6004 0001734  72.2744 287.8572 13.09870748294551
ONEWEB-0053             
1 45157U 20008AC  26065.95790100  .00000700  00000+0  19693-2 0  9998
2 45157  87.8767  56.6418 0001417  74.9334 285.1950 13.10373578294520
ONEWEB-0054             
1 45158U 20008AD  26065.99273559 -.00000560  00000+0 -16407-2 0  9993
2 45158  87.8769  56.6098 0001860  84.5177 275.6163 13.10371852294647
ONEWEB-0056             
1 45159U 20008AE  26066.05001792  .00000203  00000+0  54437-3 0  9998
2 45159  87.8770  56.5981 0001921  81.2173 278.9171 13.10369413294801
ONEWEB-0057             
1 45160U 20008AF  26065.98127840  .00000980  00000+0  27716-2 0  9995
2 45160  87.8765  56.6220 0001663  83.3894 276.7423 13.10369085294968
