[{"OBJECT_NAME":"ONEWEB-0035","OBJECT_ID":"2020-008N","EPOCH":"2026-03-06T23:50:43.615104","MEAN_MOTION":13.10371677,"ECCENTRICITY":0.0001943,"INCLINATION":87.876,"RA_OF_ASC_NODE":56.6284,"ARG_OF_PERICENTER":88.8673,"MEAN_ANOMALY":271.2677,"EPHEMERIS_TYPE":0,"CLASSIFICATION_TYPE":"U","NORAD_CAT_ID":45143,"ELEMENT_SET_NO":999,"REV_AT_EPOCH":29455,"BSTAR":-0.0017307,"MEAN_MOTION_DOT":-5.91e-6,"MEAN_MOTION_DDOT":0},{"OBJECT_NAME":"ONEWEB-0036","OBJECT_ID":"2020-008P","EPOCH":"2026-03-06T23:49:03.558720","MEAN_MOTION":13.09814587,"ECCENTRICITY":0.0001632,"INCLINATION":87.8776,"RA_OF_ASC_NODE":56.5996,"ARG_OF_PERICENTER":81.9427,"MEAN_ANOMALY":278.1885,"EPHEMERIS_TYPE":0,"CLASSIFICATION_TYPE":"U","NORAD_CAT_ID":45144,"ELEMENT_SET_NO":999,"REV_AT_EPOCH":29498,"BSTAR":-0.0019174,"MEAN_MOTION_DOT":-6.51e-6,"MEAN_MOTION_DDOT":0},{"OBJECT_NAME":"ONEWEB-0038","OBJECT_ID":"2020-008Q","EPOCH":"2026-03-07T03:50:32.532864","MEAN_MOTION":13.1141492,"ECCENTRICITY":0.0002097,"INCLINATION":87.8867,"RA_OF_ASC_NODE":41.351,"ARG_OF_PERICENTER":135.3761,"MEAN_ANOMALY":224.7536,"EPHEMERIS_TYPE":0,"CLASSIFICATION_TYPE":"U","NORAD_CAT_ID":45145,"ELEMENT_SET_NO":999,"REV_AT_EPOCH":29695,"BSTAR":0.00031436,"MEAN_MOTION_DOT":1.24e-6,"MEAN_MOTION_DDOT":0},{"OBJECT_NAME":"ONEWEB-0039","OBJECT_ID":"2020-008R","EPOCH":"2026-03-07T04:41:10.838112","MEAN_MOTION":13.10371998,"ECCENTRICITY":0.0001294,"INCLINATION":87.8777,"RA_OF_ASC_NODE":56.572,"ARG_OF_PERICENTER":85.4177,"MEAN_ANOMALY":274.7099,"EPHEMERIS_TYPE":0,"CLASSIFICATION_TYPE":"U","NORAD_CAT_ID":45146,"ELEMENT_SET_NO":999,"REV_AT_EPOCH":29480,"BSTAR":0.0016631,"MEAN_MOTION_DOT":5.93e-6,"MEAN_MOTION_DDOT":0},{"OBJECT_NAME":"ONEWEB-0040","OBJECT_ID":"2020-008S","EPOCH":"2026-03-06T23:01:45.958944","MEAN_MOTION":13.10373261,"ECCENTRICITY":0.0001796,"INCLINATION":87.8766,"RA_OF_ASC_NODE":56.6358,"ARG_OF_PERICENTER":90.2736,"MEAN_ANOMALY":269.8598,"EPHEMERIS_TYPE":0,"CLASSIFICATION_TYPE":"U","NORAD_CAT_ID":45147,"ELEMENT_SET_NO":999,"REV_AT_EPOCH":29447,"BSTAR":0.0019116,"MEAN_MOTION_DOT":6.8e-6,"MEAN_MOTION_DDOT":0},{"OBJECT_NAME":"ONEWEB-0043","OBJECT_ID":"2020-008U","EPOCH":"2026-03-06T23:04:08.724576","MEAN_MOTION":13.10373264,"ECCENTRICITY":0.0001256,"INCLINATION":87.8771,"RA_OF_ASC_NODE":56.6184,"ARG_OF_PERICENTER":80.7799,"MEAN_ANOMALY":279.3471,"EPHEMERIS_TYPE":0,"CLASSIFICATION_TYPE":"U","NORAD_CAT_ID":45149,"ELEMENT_SET_NO":999,"REV_AT_EPOCH":29479,"BSTAR":0.0019612,"MEAN_MOTION_DOT":6.97e-6,"MEAN_MOTION_DDOT":0},{"OBJECT_NAME":"ONEWEB-0044","OBJECT_ID":"2020-008V","EPOCH":"2026-03-06T23:44:45.271104","MEAN_MOTION":13.10370785,"ECCENTRICITY":0.0001642,"INCLINATION":87.8774,"RA_OF_ASC_NODE":56.6086,"ARG_OF_PERICENTER":88.8937,"MEAN_ANOMALY":271.2378,"EPHEMERIS_TYPE":0,"CLASSIFICATION_TYPE":"U","NORAD_CAT_ID":45150,"ELEMENT_SET_NO":999,"REV_AT_EPOCH":29509,"BSTAR":-0.0014177,"MEAN_MOTION_DOT":-4.82e-6,"MEAN_MOTION_DDOT":0},{"OBJECT_NAME":"ONEWEB-0045","OBJECT_ID":"2020-008W","EPOCH":"2026-03-06T22:13:25.269888","MEAN_MOTION":13.11413984,"ECCENTRICITY":0.0001725,"INCLINATION":87.8867,"RA_OF_ASC_NODE":41.3845,"ARG_OF_PERICENTER":85.0151,"MEAN_ANOMALY":275.1174,"EPHEMERIS_TYPE":0,"CLASSIFICATION_TYPE":"U","NORAD_CAT_ID":45151,"ELEMENT_SET_NO":999,"REV_AT_EPOCH":29700,"BSTAR":0.0011087,"MEAN_MOTION_DOT":4.06e-6,"MEAN_MOTION_DDOT":0},{"OBJECT_NAME":"ONEWEB-0047","OBJECT_ID":"2020-008X","EPOCH":"2026-03-06T23:35:12.379488","MEAN_MOTION":13.10372944,"ECCENTRICITY":0.0001892,"INCLINATION":87.8765,"RA_OF_ASC_NODE":56.613,"ARG_OF_PERICENTER":92.6348,"MEAN_ANOMALY":267.4996,"EPHEMERIS_TYPE":0,"CLASSIFICATION_TYPE":"U","NORAD_CAT_ID":45152,"ELEMENT_SET_NO":999,"REV_AT_EPOCH":29481,"BSTAR":-0.000623,"MEAN_MOTION_DOT":-2.05e-6,"MEAN_MOTION_DDOT":0},{"OBJECT_NAME":"ONEWEB-0048","OBJECT_ID":"2020-008Y","EPOCH":"2026-03-06T23:28:01.970112","MEAN_MOTION":13.10368641,"ECCENTRICITY":0.0001865,"INCLINATION":87.8763,"RA_OF_ASC_NODE":56.6412,"ARG_OF_PERICENTER":89.1691,"MEAN_ANOMALY":270.965,"EPHEMERIS_TYPE":0,"CLASSIFICATION_TYPE":"U","NORAD_CAT_ID":45153,"ELEMENT_SET_NO":999,"REV_AT_EPOCH":29442,"BSTAR":8.8432e-5,"MEAN_MOTION_DOT":4.4e-7,"MEAN_MOTION_DDOT":0},{"OBJECT_NAME":"ONEWEB-0049","OBJECT_ID":"2020-008Z","EPOCH":"2026-03-07T01:22:33.998016","MEAN_MOTION":13.10368152,"ECCENTRICITY":0.0001797,"INCLINATION":87.876,"RA_OF_ASC_NODE":56.6131,"ARG_OF_PERICENTER":72.0338,"MEAN_ANOMALY":288.0985,"EPHEMERIS_TYPE":0,"CLASSIFICATION_TYPE":"U","NORAD_CAT_ID":45154,"ELEMENT_SET_NO":999,"REV_AT_EPOCH":29465,"BSTAR":-0.00059413,"MEAN_MOTION_DOT":-1.95e-6,"MEAN_MOTION_DDOT":0},{"OBJECT_NAME":"ONEWEB-0051","OBJECT_ID":"2020-008AA","EPOCH":"2026-03-07T00:00:51.052896","MEAN_MOTION":13.11415089,"ECCENTRICITY":0.0001814,"INCLINATION":87.8862,"RA_OF_ASC_NODE":41.3828,"ARG_OF_PERICENTER":84.6884,"MEAN_ANOMALY":275.4451,"EPHEMERIS_TYPE":0,"CLASSIFICATION_TYPE":"U","NORAD_CAT_ID":45155,"ELEMENT_SET_NO":999,"REV_AT_EPOCH":29769,"BSTAR":0.0012123,"MEAN_MOTION_DOT":4.42e-6,"MEAN_MOTION_DDOT":0},{"OBJECT_NAME":"ONEWEB-0052","OBJECT_ID":"2020-008AB","EPOCH":"2026-03-06T23:32:27.708864","MEAN_MOTION":13.09870748,"ECCENTRICITY":0.0001734,"INCLINATION":87.8769,"RA_OF_ASC_NODE":56.6004,"ARG_OF_PERICENTER":72.2744,"MEAN_ANOMALY":287.8572,"EPHEMERIS_TYPE":0,"CLASSIFICATION_TYPE":"U","NORAD_CAT_ID":45156,"ELEMENT_SET_NO":999,"REV_AT_EPOCH":29455,"BSTAR":-0.00040416,"MEAN_MOTION_DOT":-1.27e-6,"MEAN_MOTION_DDOT":0},{"OBJECT_NAME":"ONEWEB-0053","OBJECT_ID":"2020-008AC","EPOCH":"2026-03-06T22:59:22.646400","MEAN_MOTION":13.10373578,"ECCENTRICITY":0.0001417,"INCLINATION":87.8767,"RA_OF_ASC_NODE":56.6418,"ARG_OF_PERICENTER":74.9334,"MEAN_ANOMALY":285.195,"EPHEMERIS_TYPE":0,"CLASSIFICATION_TYPE":"U","NORAD_CAT_ID":45157,"ELEMENT_SET_NO":999,"REV_AT_EPOCH":29452,"BSTAR":0.0019693,"MEAN_MOTION_DOT":7.0e-6,"MEAN_MOTION_DDOT":0},{"OBJECT_NAME":"ONEWEB-0054","OBJECT_ID":"2020-008AD","EPOCH":"2026-03-06T23:49:32.354976","MEAN_MOTION":13.10371852,"ECCENTRICITY":0.000186,"INCLINATION":87.8769,"RA_OF_ASC_NODE":56.6098,"ARG_OF_PERICENTER":84.5177,"MEAN_ANOMALY":275.6163,"EPHEMERIS_TYPE":0,"CLASSIFICATION_TYPE":"U","NORAD_CAT_ID":45158,"ELEMENT_SET_NO":999,"REV_AT_EPOCH":29464,"BSTAR":-0.0016407,"MEAN_MOTION_DOT":-5.6e-6,"MEAN_MOTION_DDOT":0},{"OBJECT_NAME":"ONEWEB-0056","OBJECT_ID":"2020-008AE","EPOCH":"2026-03-07T01:12:01.548288","MEAN_MOTION":13.10369413,"ECCENTRICITY":0.0001921,"INCLINATION":87.877,"RA_OF_ASC_NODE":56.5981,"ARG_OF_PERICENTER":81.2173,"MEAN_ANOMALY":278.9171,"EPHEMERIS_TYPE":0,"CLASSIFICATION_TYPE":"U","NORAD_CAT_ID":45159,"ELEMENT_SET_NO":999,"REV_AT_EPOCH":29480,"BSTAR":0.00054437,"MEAN_MOTION_DOT":2.03e-6,"MEAN_MOTION_DDOT":0},{"OBJECT_NAME":"ONEWEB-0057","OBJECT_ID":"2020-008AF","EPOCH":"2026-03-06T23:33:02.453760","MEAN_MOTION":13.10369085,"ECCENTRICITY":0.0001663,"INCLINATION":87.8765,"RA_OF_ASC_NODE":56.622,"ARG_OF_PERICENTER":83.3894,"MEAN_ANOMALY":276.7423,"EPHEMERIS_TYPE":0,"CLASSIFICATION_TYPE":"U","NORAD_CAT_ID":45160,"ELEMENT_SET_NO":999,"REV_AT_EPOCH":29496,"BSTAR":0.0027716,"MEAN_MOTION_DOT":9.8e-6,"MEAN_MOTION_DDOT":0}]
